[{"OBJECT_NAME":"ONEWEB-0363","OBJECT_ID":"2021-090L","EPOCH":"2026-03-09T16:42:11.174688","MEAN_MOTION":13.20772586,"ECCENTRICITY":0.00013054,"INCLINATION":87.9172,"RA_OF_ASC_NODE":294.3049,"ARG_OF_PERICENTER":77.0423,"MEAN_ANOMALY":283.0856,"EPHEMERIS_TYPE":0,"CLASSIFICATION_TYPE":"U","NORAD_CAT_ID":49289,"ELEMENT_SET_NO":999,"REV_AT_EPOCH":21717,"BSTAR":-0.00061887563,"MEAN_MOTION_DOT":-2.39e-6,"MEAN_MOTION_DDOT":0},{"OBJECT_NAME":"DELTA 1 DEB","OBJECT_ID":"1975-052CR","EPOCH":"2026-03-09T17:15:10.171008","MEAN_MOTION":13.14305797,"ECCENTRICITY":0.01520038,"INCLINATION":99.7818,"RA_OF_ASC_NODE":145.6609,"ARG_OF_PERICENTER":343.4366,"MEAN_ANOMALY":144.2043,"EPHEMERIS_TYPE":0,"CLASSIFICATION_TYPE":"U","NORAD_CAT_ID":21371,"ELEMENT_SET_NO":999,"REV_AT_EPOCH":66891,"BSTAR":0.00020001683,"MEAN_MOTION_DOT":3.8e-7,"MEAN_MOTION_DDOT":0}]
